CELTEE 1                
1 41850U 16067C   18061.19717069  .00000379  00000-0  38427-4 0  9991
2 41850  97.9282 147.9994 0009526 150.8173 209.3582 14.96755533 71091
OPTICUBE 04             
1 41851U 16067D   18061.48696259 -.00000318  00000-0 -22565-4 0  9992
2 41851  97.9272 148.2351 0009398 153.7120 206.4579 14.96624610 71133
AEROCUBE 8D             
1 41852U 16067E   18061.17598261  .00000577  00000-0  56170-4 0  9997
2 41852  97.9285 147.7768 0010540 154.3854 205.7891 14.96419396 71071
AEROCUBE 8C             
1 41853U 16067F   18061.52192081  .00000754  00000-0  71878-4 0  9996
2 41853  97.9289 148.0973 0010869 153.4713 206.7066 14.96387285 71128
PROMETHEUS 2-1          
1 41854U 16067G   18061.53450363  .00000302  00000-0  31912-4 0  9992
2 41854  97.9296 148.0969 0011081 153.4931 206.6859 14.96455295 71127
PROMETHEUS 2-3          
1 41855U 16067H   18061.47008421  .00000170  00000-0  20281-4 0  9990
2 41855  97.9298 148.0337 0011206 154.3405 205.8374 14.96452500 71112
STARS-C                 
1 41895U 98067KR  18061.52581171  .12025536  12682-4  40347-3 0  9991
2 41895  51.6547 142.6546 0011212 346.6197  16.6343 16.43666377 68734
ITF-2                   
1 41932U 98067KU  18061.51574136  .00023044  00000-0  19220-3 0  9997
2 41932  51.6376 167.8890 0003063 149.6911 210.4264 15.69963834 63979
WASEDA-SAT3             
1 41933U 98067KV  18061.49131368  .00031465  00000-0  22834-3 0  9992
2 41933  51.6352 164.6342 0002304 151.8015 208.3109 15.73100981 64019
AOBA-VELOX 3            
1 41935U 98067KX  18061.53603244  .00027579  00000-0  21094-3 0  9994
2 41935  51.6365 165.7426 0002153 152.4805 207.6307 15.71932406 64101
INS-1B                  
1 41954U 17008G   18061.47897689  .00001134  00000-0  51673-4 0  9998
2 41954  97.4594 126.2893 0009792  17.7577 342.3999 15.22689112 57766
BGUSAT                  
1 41999U 17008BD  18061.55644418  .00001910  00000-0  81564-4 0  9990
2 41999  97.4633 127.1216 0009257  36.5031 323.6836 15.24086190 57185
DIDO-2                  
1 42000U 17008BE  18061.56800754  .00000871  00000-0  40075-4 0  9999
2 42000  97.4613 126.7471 0009554  35.8318 324.3557 15.22960962 57178
PEASSS                  
1 42015U 17008BV  18061.60145011  .00001165  00000-0  51453-4 0  9997
2 42015  97.4608 127.1153 0007633  45.2556 314.9301 15.23715763 57681
AL-FARABI 1             
1 42016U 17008BW  18061.55478713  .00001350  00000-0  58589-4 0  9993
2 42016  97.4614 127.1953 0007510  46.0441 314.1414 15.24057933 57803
NAYIF-1 (EO-88)         
1 42017U 17008BX  18061.55063398  .00001343  00000-0  58245-4 0  9994
2 42017  97.4612 127.1966 0007501  46.2514 313.9343 15.24079284 57822
HAVELSAT                
1 42700U 98067LH  18061.48719725  .00021210  00000-0  21038-3 0  9995
2 42700  51.6374 178.1870 0003904 214.5587 145.5155 15.65736636 45273
COLUMBIA                
1 42702U 98067LK  18061.74700648  .01091693  73185-3  11080-2 0  9995
2 42702  51.6217 157.0955 0009658 352.4411   7.6459 16.10291812 45493
SGSAT                   
1 42703U 98067LL  18061.54943529  .00086941  00000-0  45703-3 0  9993
2 42703  51.6342 167.9754 0001654 343.2904  16.8043 15.79983723 45329
CXBN-2                  
1 42704U 98067LM  18061.48176194  .00021063  00000-0  21228-3 0  9993
2 42704  51.6381 178.9093 0001217 130.6729 229.4372 15.65345051 45181
ICECUBE                 
1 42705U 98067LN  18061.53747612  .00034791  00000-0  29641-3 0  9998
2 42705  51.6414 175.5784 0001206 122.6319 237.4794 15.69209768 45290
PHOENIX                 
1 42706U 98067LP  18061.54296722  .00016024  00000-0  16613-3 0  9995
2 42706  51.6371 178.5620 0000623 146.8548 213.2486 15.64844985 45188
X-CUBESAT               
1 42707U 98067LQ  18061.55646369  .00021466  00000-0  21147-3 0  9997
2 42707  51.6350 177.8682 0000421 149.1850 210.9170 15.65903813 45185
QBEE50-LTU-OC           
1 42708U 98067LR  18061.52245555  .00019967  00000-0  20063-3 0  9996
2 42708  51.6372 178.4098 0000520 154.3594 205.7428 15.65458683 45134
ALTAIR PATHFINDER       
1 42711U 98067LS  18061.54399538  .00011440  00000-0  13671-3 0  9998
2 42711  51.6373 182.3149 0003673 136.2470 223.8816 15.61525416 44792
SHARC                   
1 42712U 98067LT  18061.49135463  .00008313  00000-0  10516-3 0  9998
2 42712  51.6391 183.4974 0002204 141.2897 218.8255 15.60463997 45010
ZA-AEROSAT              
1 42713U 98067LU  18061.55342333  .00016401  00000-0  17740-3 0  9995
2 42713  51.6364 180.1247 0001790 123.1435 236.9731 15.63743108 44820
LINK                    
1 42714U 98067LV  18061.56418730  .00034528  00000-0  29254-3 0  9995
2 42714  51.6333 175.6417 0000895 108.4113 251.6982 15.69348626 44991
CSUNSAT 1               
1 42715U 98067LW  18061.53764156  .00017580  00000-0  18756-3 0  9993
2 42715  51.6377 180.0281 0003450 126.7303 233.4009 15.64034063 44825
SPACECUBE               
1 42717U 98067LY  18061.54504898  .00020720  00000-0  20869-3 0  9999
2 42717  51.6361 178.5620 0002630 217.7916 142.2895 15.65371475 44214
HOOPOE                  
1 42718U 98067LZ  18061.51577379  .00025009  00000-0  23805-3 0  9999
2 42718  51.6369 177.6191 0002412 220.3011 139.7807 15.66662353 44224
CHALLENGER              
1 42721U 98067MA  18061.48462317  .00041702  00000-0  31977-3 0  9991
2 42721  51.6349 174.3592 0003423 206.8026 153.2796 15.71653289 43965
NJUST-1                 
1 42722U 98067MB  18061.49469536  .00015050  00000-0  16753-3 0  9995
2 42722  51.6373 181.2385 0005422 191.2050 168.8824 15.63073011 43879
UNSW-ECO                
1 42723U 98067MC  18061.48254046  .00026592  00000-0  25068-3 0  9995
2 42723  51.6382 178.1619 0004389 195.1590 164.9275 15.66859504 43899
LILACSAT-1              
1 42725U 98067ME  18061.53899122  .00018815  00000-0  19717-3 0  9996
2 42725  51.6373 180.0347 0004292 195.3143 164.7722 15.64433186 43796
NSIGHT-1                
1 42726U 98067MF  18061.50805853  .00007247  00000-0  95131-4 0  9994
2 42726  51.6390 184.3538 0005363 192.0257 168.0609 15.59705522 43741
SNUSAT-1                
1 42727U 98067MG  18061.48035539  .00020200  00000-0  21181-3 0  9995
2 42727  51.6357 180.3612 0005903 152.8061 207.3244 15.64356516 43755
I-INSPIRE II            
1 42731U 98067ML  18061.51083944  .00028933  00000-0  26714-3 0  9995
2 42731  51.6361 177.5580 0004595 137.7248 222.4103 15.67325162 43682
POLYITAN-2-SAU          
1 42732U 98067MM  18061.54994430  .00022367  00000-0  22148-3 0  9992
2 42732  51.6367 178.5844 0005061 136.4825 223.6571 15.65737393 43671
SNUSAT-1B               
1 42733U 98067MN  18061.49216189  .00020408  00000-0  20977-3 0  9997
2 42733  51.6368 179.7059 0005301 139.9909 220.1477 15.64859097 43652
EXALTA-1                
1 42734U 98067MP  18061.51557292  .00029113  00000-0  26805-3 0  9992
2 42734  51.6350 177.5850 0005498 168.2548 191.8577 15.67386263 43636
BEEAGLESAT              
1 42736U 98067MR  18061.54800798  .00018865  00000-0  19997-3 0  9995
2 42736  51.6363 180.0780 0005561 188.1545 171.9361 15.64133584 43714
ATLANTIS                
1 42737U 98067MS  18061.50527179  .00204425  00000-0  66494-3 0  9994
2 42737  51.6245 164.5652 0003687 328.3669  31.7114 15.89611165 43803
UCLSAT                  
1 42765U 17036A   18061.35255662  .00001142  00000-0  53671-4 0  9995
2 42765  97.4151 122.8638 0013633  91.5843 268.6955 15.21547989 39058
LITUANICASAT-2          
1 42768U 17036D   18061.37006314  .00001790  00000-0  83821-4 0  9997
2 42768  97.4163 122.5526 0017585  82.2382 278.0849 15.20894715 38329
AALTO-1                 
1 42775U 17036L   18061.36564781  .00000743  00000-0  36994-4 0  9997
2 42775  97.4149 122.5421 0015959  80.0856 280.2180 15.20542029 38264
URSA MAIOR              
1 42776U 17036M   18061.35722364  .00000764  00000-0  37917-4 0  9999
2 42776  97.4154 122.5647 0015817  80.4467 279.8555 15.20607856 38266
COMPASS 2               
1 42777U 17036N   18061.47257768  .00001465  00000-0  68356-4 0  9994
2 42777  97.4170 122.9062 0014790  83.8299 276.4621 15.21343680 38281
DIAMOND RED             
1 42783U 17036U   18061.58878881  .00000905  00000-0  43588-4 0  9996
2 42783  97.4152 123.0103 0014212  90.6755 269.6109 15.21218015 38309
PEGASUS                 
1 42784U 17036V   18061.37718735  .00001039  00000-0  49322-4 0  9996
2 42784  97.4154 122.8392 0014151  91.4828 268.8029 15.21376368 38275
DIAMOND GREEN           
1 42785U 17036W   18061.58790463  .00000936  00000-0  44934-4 0  9997
2 42785  97.4155 123.0191 0014102  91.2135 269.0716 15.21221564 38376
DIAMOND BLUE            
1 42786U 17036X   18061.58699519  .00000913  00000-0  43951-4 0  9991
2 42786  97.4154 123.0189 0013944  91.4777 268.8056 15.21217507 38376
NUDTSAT                 
1 42787U 17036Y   18061.59448664  .00001558  00000-0  71499-4 0  9990
2 42787  97.4158 123.1637 0013735  91.0268 269.2542 15.21827149 38159
SUCHAI                  
1 42788U 17036Z   18061.15430116  .00001197  00000-0  56019-4 0  9996
2 42788  97.4156 122.6772 0013781  92.2936 267.9878 15.21595649 38310
SKCUBE                  
1 42789U 17036AA  18061.54643754  .00001142  00000-0  53598-4 0  9993
2 42789  97.4153 123.0653 0013626  91.0469 269.2328 15.21581645 38290
VZLUSAT-1               
1 42790U 17036AB  18061.58556706  .00001521  00000-0  69846-4 0  9993
2 42790  97.4155 123.1630 0013283  91.3138 268.9620 15.21856633 38300
ROBUSTA-1B              
1 42792U 17036AD  18061.59059660  .00001166  00000-0  54484-4 0  9990
2 42792  97.4151 123.1508 0013190  91.8803 268.3944 15.21719260 38311
CICERO 6                
1 42793U 17036AE  18061.37997241  .00000712  00000-0  34513-4 0  9990
2 42793  97.4147 122.9657 0012323  93.3283 266.9363 15.21662459 38355
D-SAT                   
1 42794U 17036AF  18061.59397378  .00000126  00000-0  16816-4 0  9995
2 42794  97.6067 120.1993 0125698 276.9495  81.7440 14.90789926 37842
